STARLINK-6360           
1 57235U 23094T   23285.25957885 -.00000512  00000+0 -22807-4 0  9991
2 57235  43.0031 128.6567 0001363 267.4732  92.5954 15.02535185 14839
STARLINK-6315           
1 57236U 23094U   23285.91668981 -.00002375  00000+0 -16090-3 0  9996
2 57236  43.0008 112.8873 0001215 280.8122  65.7909 15.02522163 15258
STARLINK-6365           
1 57237U 23094V   23285.85232788  .00004342  00000+0  33626-3 0  9990
2 57237  43.0003 125.3669 0001248 278.7279  81.3422 15.02542546 15106
STARLINK-6334           
1 57238U 23094W   23285.51254327 -.00000069  00000+0  99939-5 0  9991
2 57238  43.0015 114.9729 0001447 271.6241  88.4435 15.02534497 15011
STARLINK-6330           
1 57239U 23094X   23284.91386560 -.00000534  00000+0 -24468-4 0  9992
2 57239  43.0010 130.3623 0001243 262.5181  97.5520 15.02543090 14786
STARLINK-6351           
1 57240U 23094Y   23285.83578602 -.00050388  00000+0 -37946-2 0  9991
2 57240  43.0022 113.1010 0001309 273.3288  86.7405 15.02008373 15245
STARLINK-6349           
1 57241U 23094Z   23285.58334491  .00007823  00000+0  59333-3 0  9999
2 57241  43.0005 114.6534 0001405 265.9172  93.5021 15.02550273  5879
STARLINK-6306           
1 57242U 23094AA  23285.64660984  .00000081  00000+0  21088-4 0  9992
2 57242  43.0014 114.2608 0001184 271.8013  88.2694 15.02533813 15219
STARLINK-6346           
1 57243U 23094AB  23285.71530384 -.00000163  00000+0  30037-5 0  9998
2 57243  43.0016 113.9187 0001226 280.7117  79.3587 15.02540545 15224
STARLINK-5610           
1 57244U 23094AC  23285.50588579 -.00000770  00000+0 -41970-4 0  9997
2 57244  43.0017 114.9220 0001229 271.2411  88.8290 15.02537257 15019
STARLINK-5587           
1 57245U 23094AD  23285.24330059 -.00001035  00000+0 -61519-4 0  9993
2 57245  43.0015 116.3914 0001372 275.2502  84.8183 15.02540566 14976
STARLINK-5049           
1 57246U 23094AE  23285.54683443 -.00000343  00000+0 -10314-4 0  9993
2 57246  43.0019 114.3693 0001310 270.1937  89.8755 15.02534227 15025
STARLINK-5039           
1 57247U 23094AF  23285.83477713  .00052148  00000+0  38816-2 0  9990
2 57247  43.0018 113.0927 0001222 279.4125  80.6578 15.02195620 15240
STARLINK-5514           
1 57248U 23094AG  23285.83160941 -.00000391  00000+0 -13873-4 0  9996
2 57248  43.0017 113.0678 0001193 281.2794  78.7914 15.02543589 15246
STARLINK-5517           
1 57249U 23094AH  23285.82813151  .00000649  00000+0  64319-4 0  9999
2 57249  43.0011 112.1506 0001154 273.5730  86.4980 15.01731399 15259
STARLINK-5488           
1 57250U 23094AJ  23285.81940043  .00000395  00000+0  44299-4 0  9994
2 57250  43.0026 112.9745 0001455 271.0605  89.0070 15.02538968 15244
STARLINK-5513           
1 57251U 23094AK  23285.82606906 -.00000685  00000+0 -35650-4 0  9998
2 57251  43.0005 113.0247 0000861 275.0451  85.0293 15.02531845 15244
STARLINK-5511           
1 57252U 23094AL  23285.54572185 -.00000914  00000+0 -52621-4 0  9991
2 57252  42.9999 114.3597 0001096 261.7617  98.3101 15.02536487 15022
STARLINK-5516           
1 57253U 23094AM  23285.82494636  .00000307  00000+0  37816-4 0  9990
2 57253  43.0000 113.0158 0001126 269.2385  90.8328 15.02543689 15240
STARLINK-5490           
1 57254U 23094AN  23285.54017496 -.00000223  00000+0 -14732-5 0  9997
2 57254  43.0018 114.3195 0000867 264.0967  95.9776 15.02535816 15027
STARLINK-5481           
1 57255U 23094AP  23285.54239398  .00000007  00000+0  15609-4 0  9996
2 57255  43.0021 114.3351 0001292 268.9392  91.1303 15.02536651 15026
STARLINK-5512           
1 57256U 23094AQ  23285.26011401  .00000333  00000+0  38004-4 0  9995
2 57256  43.0009 115.6839 0001134 274.7390  85.3323 15.04488201 14986
STARLINK-5503           
1 57257U 23094AR  23285.54905543 -.00001079  00000+0 -64789-4 0  9995
2 57257  43.0020 114.3849 0001367 268.8466  91.2219 15.02533527 15681
STARLINK-5476           
1 57258U 23094AS  23285.80275426 -.00000395  00000+0 -14177-4 0  9991
2 57258  43.0014 112.8492 0001082 271.3011  88.7708 15.02539518 15243
STARLINK-5505           
1 57259U 23094AT  23285.47115128  .00081090  00000+0  84567-3 0  9995
2 57259  42.9968  99.0418 0006336 293.5089  66.5110 15.63540773 15830
STARLINK-5026           
1 57260U 23094AU  23285.79609254 -.00000500  00000+0 -21931-4 0  9996
2 57260  43.0016 112.7988 0001236 279.5606  80.5097 15.02540851 15241
STARLINK-5485           
1 57261U 23094AV  23285.86342269  .00001154  00000+0  10046-3 0  9993
2 57261  43.0017 125.4501 0001394 272.7532  87.3150 15.02541021 15169
STARLINK-5504           
1 57262U 23094AW  23285.00724124 -.00000187  00000+0  12542-5 0  9995
2 57262  43.0017 117.2009 0001252 271.2447  88.8251 15.02536249 14943
STARLINK-5509           
1 57263U 23094AX  23285.52882049 -.00001009  00000+0 -59602-4 0  9996
2 57263  43.0021 127.2383 0001057 268.4648  91.6073 15.02536868 14872
STARLINK-5858           
1 57264U 23094AY  23285.79165334 -.00000020  00000+0  13613-4 0  9990
2 57264  43.0006 112.7644 0001150 267.2270  92.8440 15.02541462 15246
STARLINK-5890           
1 57265U 23094AZ  23285.78942629  .00000583  00000+0  58180-4 0  9991
2 57265  43.0006 112.7499 0001182 276.7540  83.3167 15.02545898 15243
STARLINK-30198          
1 57290U 23096A   23285.79065367  .00005278  00000+0  40548-3 0  9991
2 57290  43.0010 319.2414 0000328 296.5523  63.5285 15.02538168 14308
STARLINK-30239          
1 57291U 23096B   23285.45493431  .00005965  00000+0  45617-3 0  9997
2 57291  43.0007 321.0208 0000933 260.4760  99.5977 15.02544135 15356
STARLINK-30210          
1 57292U 23096C   23285.51808172  .00015031  00000+0  11250-2 0  9997
2 57292  43.0009 320.6364 0000633 268.9844  91.0926 15.02548707 15248
STARLINK-30202          
1 57293U 23096D   23285.80186477  .00052387  00000+0  30547-2 0  9992
2 57293  43.0003 315.9405 0006405  83.8653 276.2922 15.11202654 14500
STARLINK-30235          
1 57294U 23096E   23285.77733714 -.00002861  00000+0 -19682-3 0  9993
2 57294  43.0023 319.1389 0000760 296.1957  63.8807 15.02528683 14307
STARLINK-30206          
1 57295U 23096F   23285.52646592  .00015887  00000+0  12137-2 0  9991
2 57295  43.0005 320.6659 0000757 275.6180  84.4575 15.01739203 15360
STARLINK-30238          
1 57296U 23096G   23285.50809059  .00021038  00000+0  15669-2 0  9997
2 57296  43.0021 320.5601 0000441 269.7942  90.2850 15.02557164 15383
STARLINK-30234          
1 57297U 23096H   23285.50476074  .00011074  00000+0  83318-3 0  9991
2 57297  43.0007 320.5346 0000782 258.2985 101.7770 15.02553219 14264
STARLINK-30241          
1 57298U 23096J   23285.46591030  .00004438  00000+0  34332-3 0  9995
2 57298  43.0025 320.2296 0000552 277.4832  82.5948 15.02544995 14270
STARLINK-30199          
1 57299U 23096K   23285.50143016  .00026394  00000+0  19600-2 0  9993
2 57299  43.0015 320.5115 0000726 258.5022 101.5739 15.02567048 15362
STARLINK-30236          
1 57300U 23096L   23285.36514819  .00004737  00000+0  36539-3 0  9991
2 57300  43.0019 321.2051 0000558 259.1597 100.9182 15.02546822 15387
STARLINK-30201          
1 57301U 23096M   23285.49477191  .00026734  00000+0  19851-2 0  9995
2 57301  43.0020 320.4595 0000846 264.7289  95.3457 15.02563501 14467
STARLINK-30233          
1 57302U 23096N   23285.15623885  .00007378  00000+0  57273-3 0  9996
2 57302  43.0013 322.2049 0000873 285.8386  74.2360 15.01725095 14226
STARLINK-30232          
1 57303U 23096P   23285.48811439  .00030580  00000+0  22671-2 0  9991
2 57303  43.0029 320.4202 0000877 272.5895  87.4847 15.02567396 15223
STARLINK-30211          
1 57304U 23096Q   23285.41830502  .00006610  00000+0  50376-3 0  9998
2 57304  43.0013 320.7435 0000926 274.6708  85.4029 15.02546634 14455
STARLINK-30177          
1 57305U 23096R   23285.81384289  .00010956  00000+0  82452-3 0  9997
2 57305  43.0025 318.5480 0000783 256.5097 103.5658 15.02551710 14311
STARLINK-30200          
1 57306U 23096S   23285.81051019  .00017595  00000+0  13134-2 0  9996
2 57306  43.0025 318.5226 0000652 271.5679  88.5089 15.02562289 14322
STARLINK-30209          
1 57307U 23096T   23285.80718360  .00010263  00000+0  77339-3 0  9998
2 57307  43.0006 318.4972 0000318 119.2190 240.8684 15.02549859 14326
STARLINK-30194          
1 57308U 23096U   23285.80385631  .00011225  00000+0  84432-3 0  9991
2 57308  43.0023 318.4754 0000228 245.7800 114.3018 15.02552293 14318
STARLINK-30163          
1 57309U 23096V   23285.46813511  .00022434  00000+0  16693-2 0  9994
2 57309  43.0015 320.2590 0000515 266.5952  93.4831 15.02561997 14453
STARLINK-30184          
1 57310U 23096W   23285.41093166  .00001719  00000+0  10444-3 0  9999
2 57310  42.9998 296.5247 0000663 244.1715 115.9063 15.14297723 14734
STARLINK-30175          
1 57311U 23096X   23285.46480395  .00010072  00000+0  75902-3 0  9991
2 57311  43.0016 320.2316 0001047 266.8661  93.2062 15.02564176 14461
STARLINK-6290           
1 57328U 23099A   23285.52640598  .00006707  00000+0  51089-3 0  9992
2 57328  43.0032 346.4425 0001012 279.6130  80.4598 15.02548468 14775
STARLINK-6138           
1 57329U 23099B   23285.64936355  .00000335  00000+0  39830-4 0  9997
2 57329  43.0033 345.6403 0000831 272.9441  87.1306 15.02550020 14625
STARLINK-6212           
1 57330U 23099C   23285.52307278  .00001020  00000+0  90519-4 0  9995
2 57330  43.0035 346.4172 0001107 273.5014  86.5701 15.02543937 13867
STARLINK-6234           
1 57331U 23099D   23285.65492306  .00012264  00000+0  92088-3 0  9991
2 57331  43.0024 345.6853 0000968 277.4965  82.5767 15.02556361 14364
STARLINK-5831           
1 57332U 23099E   23285.65269325  .00000978  00000+0  87450-4 0  9992
2 57332  43.0042 345.6697 0001051 277.9881  82.0842 15.02552329 14625
STARLINK-5585           
1 57333U 23099F   23285.58511035  .00000655  00000+0  63528-4 0  9995
2 57333  43.0033 346.0195 0001699 289.5230  70.5428 15.02548813 14501
